{"type": "FeatureCollection", "features": [ {"type": "Feature", "properties": {"norad_id": 66559, "name": "STARLINK-35419", "group": "last-30-days", "lat": 40.01182960853425, "lon": -160.94918110304042, "alt_km": 409.91907560432355, "timestamp": "2025-12-10T09:57:43.489273+00:00", "meta": {"OBJECT_NAME": "STARLINK-35419", "OBJECT_ID": "2025-268C", "EPOCH": "2025-12-10T04:00:01.998720", "MEAN_MOTION": 15.50665327, "ECCENTRICITY": 0.0001953, "INCLINATION": 43.0006, "RA_OF_ASC_NODE": 136.2372, "ARG_OF_PERICENTER": 273.4235, "MEAN_ANOMALY": 208.9021, "EPHEMERIS_TYPE": 0, "CLASSIFICATION_TYPE": "U", "NORAD_CAT_ID": 66559, "ELEMENT_SET_NO": 999, "REV_AT_EPOCH": 425, "BSTAR": -0.0032983, "MEAN_MOTION_DOT": -0.0018982, "MEAN_MOTION_DDOT": 0}, "tle": {"line1": "1 66559U 25268C   25344.16668980 -.00189820  00000+0 -32983-2 0  9992", "line2": "2 66559  43.0006 136.2372 0001953 273.4235 208.9021 15.50665327  4257"}}, "geometry": {"type": "Point", "coordinates": [-160.94918110304042, 40.01182960853425]}}, {"type": "Feature", "properties": {"norad_id": 66560, "name": "STARLINK-35411", "group": "last-30-days", "lat": 40.55861284328459, "lon": -158.5240211479818, "alt_km": 409.99772033634235, "timestamp": "2025-12-10T09:57:43.489296+00:00", "meta": {"OBJECT_NAME": "STARLINK-35411", "OBJECT_ID": "2025-268D", "EPOCH": "2025-12-10T04:00:01.998720", "MEAN_MOTION": 15.5063128, "ECCENTRICITY": 0.0001993, "INCLINATION": 43.0007, "RA_OF_ASC_NODE": 136.2327, "ARG_OF_PERICENTER": 269.4964, "MEAN_ANOMALY": 214.7897, "EPHEMERIS_TYPE": 0, "CLASSIFICATION_TYPE": "U", "NORAD_CAT_ID": 66560, "ELEMENT_SET_NO": 999, "REV_AT_EPOCH": 425, "BSTAR": -0.0031687, "MEAN_MOTION_DOT": -0.00182326, "MEAN_MOTION_DDOT": 0}, "tle": {"line1": "1 66560U 25268D   25344.16668980 -.00182326  00000+0 -31687-2 0  9998", "line2": "2 66560  43.0007 136.2327 0001993 269.4964 214.7897 15.50631280  4255"}}, "geometry": {"type": "Point", "coordinates": [-158.5240211479818, 40.55861284328459]}}, {"type": "Feature", "properties": {"norad_id": 66561, "name": "STARLINK-35305", "group": "last-30-days", "lat": 41.4869448295148, "lon": -153.6123019882955, "alt_km": 409.6642671689542, "timestamp": "2025-12-10T09:57:43.489310+00:00", "meta": {"OBJECT_NAME": "STARLINK-35305", "OBJECT_ID": "2025-268E", "EPOCH": "2025-12-10T04:00:01.998720", "MEAN_MOTION": 15.5067478, "ECCENTRICITY": 0.0001864, "INCLINATION": 43.0005, "RA_OF_ASC_NODE": 136.2225, "ARG_OF_PERICENTER": 275.2066, "MEAN_ANOMALY": 212.8671, "EPHEMERIS_TYPE": 0, "CLASSIFICATION_TYPE": "U", "NORAD_CAT_ID": 66561, "ELEMENT_SET_NO": 999, "REV_AT_EPOCH": 420, "BSTAR": -0.0035418, "MEAN_MOTION_DOT": -0.00203522, "MEAN_MOTION_DDOT": 0}, "tle": {"line1": "1 66561U 25268E   25344.16668980 -.00203522  00000+0 -35418-2 0  9997", "line2": "2 66561  43.0005 136.2225 0001864 275.2066 212.8671 15.50674780  4202"}}, "geometry": {"type": "Point", "coordinates": [-153.6123019882955, 41.4869448295148]}}, {"type": "Feature", "properties": {"norad_id": 66562, "name": "STARLINK-35579", "group": "last-30-days", "lat": 41.050607326363185, "lon": -156.0781977879665, "alt_km": 409.9021167797264, "timestamp": "2025-12-10T09:57:43.489321+00:00", "meta": {"OBJECT_NAME": "STARLINK-35579", "OBJECT_ID": "2025-268F", "EPOCH": "2025-12-10T04:00:01.998720", "MEAN_MOTION": 15.50632103, "ECCENTRICITY": 0.0001934, "INCLINATION": 43.0008, "RA_OF_ASC_NODE": 136.2272, "ARG_OF_PERICENTER": 269.0873, "MEAN_ANOMALY": 217.1168, "EPHEMERIS_TYPE": 0, "CLASSIFICATION_TYPE": "U", "NORAD_CAT_ID": 66562, "ELEMENT_SET_NO": 999, "REV_AT_EPOCH": 425, "BSTAR": -0.0032207, "MEAN_MOTION_DOT": -0.00185244, "MEAN_MOTION_DDOT": 0}, "tle": {"line1": "1 66562U 25268F   25344.16668980 -.00185244  00000+0 -32207-2 0  9991", "line2": "2 66562  43.0008 136.2272 0001934 269.0873 217.1168 15.50632103  4250"}}, "geometry": {"type": "Point", "coordinates": [-156.0781977879665, 41.050607326363185]}}, {"type": "Feature", "properties": {"norad_id": 66563, "name": "STARLINK-35437", "group": "last-30-days", "lat": 41.87462032652939, "lon": -151.08334595479127, "alt_km": 409.7609231552824, "timestamp": "2025-12-10T09:57:43.489331+00:00", "meta": {"OBJECT_NAME": "STARLINK-35437", "OBJECT_ID": "2025-268G", "EPOCH": "2025-12-10T04:00:01.998720", "MEAN_MOTION": 15.50629037, "ECCENTRICITY": 0.0001889, "INCLINATION": 43.0006, "RA_OF_ASC_NODE": 136.2174, "ARG_OF_PERICENTER": 270.8597, "MEAN_ANOMALY": 219.1812, "EPHEMERIS_TYPE": 0, "CLASSIFICATION_TYPE": "U", "NORAD_CAT_ID": 66563, "ELEMENT_SET_NO": 999, "REV_AT_EPOCH": 425, "BSTAR": -0.0031536, "MEAN_MOTION_DOT": -0.00181457, "MEAN_MOTION_DDOT": 0}, "tle": {"line1": "1 66563U 25268G   25344.16668980 -.00181457  00000+0 -31536-2 0  9998", "line2": "2 66563  43.0006 136.2174 0001889 270.8597 219.1812 15.50629037  4252"}}, "geometry": {"type": "Point", "coordinates": [-151.08334595479127, 41.87462032652939]}}, {"type": "Feature", "properties": {"norad_id": 66564, "name": "STARLINK-35358", "group": "last-30-days", "lat": 42.20133519677629, "lon": -148.56185829446963, "alt_km": 409.63252063250366, "timestamp": "2025-12-10T09:57:43.489341+00:00", "meta": {"OBJECT_NAME": "STARLINK-35358", "OBJECT_ID": "2025-268H", "EPOCH": "2025-12-10T04:00:01.998720", "MEAN_MOTION": 15.50650662, "ECCENTRICITY": 0.0001927, "INCLINATION": 43.0004, "RA_OF_ASC_NODE": 136.213, "ARG_OF_PERICENTER": 276.2537, "MEAN_ANOMALY": 215.6654, "EPHEMERIS_TYPE": 0, "CLASSIFICATION_TYPE": "U", "NORAD_CAT_ID": 66564, "ELEMENT_SET_NO": 999, "REV_AT_EPOCH": 420, "BSTAR": -0.0029561, "MEAN_MOTION_DOT": -0.00170484, "MEAN_MOTION_DDOT": 0}, "tle": {"line1": "1 66564U 25268H   25344.16668980 -.00170484  00000+0 -29561-2 0  9992", "line2": "2 66564  43.0004 136.2130 0001927 276.2537 215.6654 15.50650662  4208"}}, "geometry": {"type": "Point", "coordinates": [-148.56185829446963, 42.20133519677629]}}, {"type": "Feature", "properties": {"norad_id": 66565, "name": "STARLINK-35893", "group": "last-30-days", "lat": 42.47439731538296, "lon": -145.99509245287857, "alt_km": 409.5946449729363, "timestamp": "2025-12-10T09:57:43.489353+00:00", "meta": {"OBJECT_NAME": "STARLINK-35893", "OBJECT_ID": "2025-268J", "EPOCH": "2025-12-10T04:00:01.998720", "MEAN_MOTION": 15.5066219, "ECCENTRICITY": 0.00019, "INCLINATION": 43.0004, "RA_OF_ASC_NODE": 136.2076, "ARG_OF_PERICENTER": 274.7741, "MEAN_ANOMALY": 219.0589, "EPHEMERIS_TYPE": 0, "CLASSIFICATION_TYPE": "U", "NORAD_CAT_ID": 66565, "ELEMENT_SET_NO": 999, "REV_AT_EPOCH": 425, "BSTAR": -0.003322, "MEAN_MOTION_DOT": -0.00191127, "MEAN_MOTION_DDOT": 0}, "tle": {"line1": "1 66565U 25268J   25344.16668980 -.00191127  00000+0 -33220-2 0  9997", "line2": "2 66565  43.0004 136.2076 0001900 274.7741 219.0589 15.50662190  4258"}}, "geometry": {"type": "Point", "coordinates": [-145.99509245287857, 42.47439731538296]}}, {"type": "Feature", "properties": {"norad_id": 66566, "name": "STARLINK-35871", "group": "last-30-days", "lat": 42.68960832622343, "lon": -143.40598724646975, "alt_km": 409.50283795004543, "timestamp": "2025-12-10T09:57:43.489366+00:00", "meta": {"OBJECT_NAME": "STARLINK-35871", "OBJECT_ID": "2025-268K", "EPOCH": "2025-12-10T04:00:01.998720", "MEAN_MOTION": 15.50665565, "ECCENTRICITY": 0.000179, "INCLINATION": 43.0004, "RA_OF_ASC_NODE": 136.2026, "ARG_OF_PERICENTER": 273.0409, "MEAN_ANOMALY": 222.711, "EPHEMERIS_TYPE": 0, "CLASSIFICATION_TYPE": "U", "NORAD_CAT_ID": 66566, "ELEMENT_SET_NO": 999, "REV_AT_EPOCH": 425, "BSTAR": -0.0033907, "MEAN_MOTION_DOT": -0.00194996, "MEAN_MOTION_DDOT": 0}, "tle": {"line1": "1 66566U 25268K   25344.16668980 -.00194996  00000+0 -33907-2 0  9997", "line2": "2 66566  43.0004 136.2026 0001790 273.0409 222.7110 15.50665565  4254"}}, "geometry": {"type": "Point", "coordinates": [-143.40598724646975, 42.68960832622343]}}, {"type": "Feature", "properties": {"norad_id": 66567, "name": "STARLINK-35825", "group": "last-30-days", "lat": 42.8456855403546, "lon": -140.80567779384745, "alt_km": 409.49164316260703, "timestamp": "2025-12-10T09:57:43.489376+00:00", "meta": {"OBJECT_NAME": "STARLINK-35825", "OBJECT_ID": "2025-268L", "EPOCH": "2025-12-10T04:00:01.998720", "MEAN_MOTION": 15.50661119, "ECCENTRICITY": 0.0001805, "INCLINATION": 43.0004, "RA_OF_ASC_NODE": 136.198, "ARG_OF_PERICENTER": 274.5408, "MEAN_ANOMALY": 223.1294, "EPHEMERIS_TYPE": 0, "CLASSIFICATION_TYPE": "U", "NORAD_CAT_ID": 66567, "ELEMENT_SET_NO": 999, "REV_AT_EPOCH": 425, "BSTAR": -0.0032594, "MEAN_MOTION_DOT": -0.00187604, "MEAN_MOTION_DDOT": 0}, "tle": {"line1": "1 66567U 25268L   25344.16668980 -.00187604  00000+0 -32594-2 0  9997", "line2": "2 66567  43.0004 136.1980 0001805 274.5408 223.1294 15.50661119  4254"}}, "geometry": {"type": "Point", "coordinates": [-140.80567779384745, 42.8456855403546]}}, {"type": "Feature", "properties": {"norad_id": 66568, "name": "STARLINK-35803", "group": "last-30-days", "lat": 42.94245027924525, "lon": -138.19537492595845, "alt_km": 409.43130394304535, "timestamp": "2025-12-10T09:57:43.489387+00:00", "meta": {"OBJECT_NAME": "STARLINK-35803", "OBJECT_ID": "2025-268M", "EPOCH": "2025-12-10T04:00:01.998720", "MEAN_MOTION": 15.50660386, "ECCENTRICITY": 0.0001715, "INCLINATION": 43.0004, "RA_OF_ASC_NODE": 136.1929, "ARG_OF_PERICENTER": 271.9784, "MEAN_ANOMALY": 227.6099, "EPHEMERIS_TYPE": 0, "CLASSIFICATION_TYPE": "U", "NORAD_CAT_ID": 66568, "ELEMENT_SET_NO": 999, "REV_AT_EPOCH": 425, "BSTAR": -0.0032547, "MEAN_MOTION_DOT": -0.00187332, "MEAN_MOTION_DDOT": 0}, "tle": {"line1": "1 66568U 25268M   25344.16668980 -.00187332  00000+0 -32547-2 0  9994", "line2": "2 66568  43.0004 136.1929 0001715 271.9784 227.6099 15.50660386  4253"}}, "geometry": {"type": "Point", "coordinates": [-138.19537492595845, 42.94245027924525]}}]}